SatCatId,ObjectName,LaunchYear,OrbitalPeriod,LaunchMass,StatusCode,Inclination,Status,UcsData,OrbitClassEstimated,LaunchSiteCountry,Owner,UseType,Purpose,LaunchVehicleClass,TLE1,TLE2,MeanMotion,Eccentricity,OrbitClass
59170,STARLINK-31340,2024,93.46,-1.0,P,43.0,Active,0,LEO,USA,USA,Unknown,Unknown,Unknown,1 59170U 24044U   24271.19492692 -.00005197  00000+0 -11732-3 0  9994,2 59170  43.0038 193.1611 0001878 258.2427 101.8218 15.40674080 32830,15.4067408,0.0001878,LEO
59171,STARLINK-31344,2024,94.37,-1.0,+,43.0,Active,0,LEO,USA,USA,Unknown,Unknown,Unknown,1 59171U 24044V   24271.52327537 -.00000237  00000+0  76775-6 0  9997,2 59171  43.0026 206.8698 0001140 242.5009 117.5726 15.25909402 32851,15.25909402,0.000114,LEO
59172,STARLINK-31348,2024,93.46,-1.0,+,43.0,Active,0,LEO,USA,USA,Unknown,Unknown,Unknown,1 59172U 24044W   24271.45700955 -.00003394  00000+0 -74071-4 0  9992,2 59172  43.0046 183.0238 0001706 265.2032  94.8630 15.40672759 32867,15.40672759,0.0001706,LEO
59173,STARLINK-31289,2024,94.37,-1.0,+,43.0,Active,0,LEO,USA,USA,Unknown,Unknown,Unknown,1 59173U 24044X   24271.21184106 -.00005541  00000+0 -20237-3 0  9991,2 59173  43.0012 208.8290 0000535 290.1111  69.9682 15.25878357 32819,15.25878357,5.35e-05,LEO
59174,STARLINK-31283,2024,93.47,-1.0,+,43.0,Active,0,LEO,USA,USA,Unknown,Unknown,Unknown,1 59174U 24044Y   24271.58334491  .00037230  00000+0  89510-3 0  9993,2 59174  43.0025 182.5360 0001680 264.7626 337.4306 15.40668437 33157,15.40668437,0.000168,LEO
59175,EXO-0,2023,94.77,-1.0,+,97.45,Active,0,LEO,USA,France,Unknown,Unknown,Unknown,1 59175U 23174DK  24271.14967449  .00015538  00000+0  73090-3 0  9997,2 59175  97.4485 343.8887 0011497 225.4012 134.6285 15.19596563 49153,15.19596563,0.0011497,LEO
59178,STARLINK-31439,2024,93.46,-1.0,+,43.0,Active,0,LEO,USA,USA,Unknown,Unknown,Unknown,1 59178U 24045A   24271.24202995 -.00001301  00000+0 -23885-4 0  9990,2 59178  43.0047 213.2596 0001688 251.6685 108.3988 15.40687185 32157,15.40687185,0.0001688,LEO
59179,STARLINK-31410,2024,93.46,-1.0,+,43.0,Active,0,LEO,USA,USA,Unknown,Unknown,Unknown,1 59179U 24045B   24271.14583622 -.00000481  00000+0 -42601-5 0  9995,2 59179  43.0045 213.3869 0001528 269.5939  90.4742 15.40692306 32142,15.40692306,0.0001528,LEO
59180,STARLINK-31395,2024,93.46,-1.0,+,43.0,Active,0,LEO,USA,USA,Unknown,Unknown,Unknown,1 59180U 24045C   24271.13466823 -.00002109  00000+0 -43321-4 0  9997,2 59180  43.0036 213.3048 0001551 275.7126  84.3554 15.40641926 32141,15.40641926,0.0001551,LEO
59181,STARLINK-31486,2024,93.46,-1.0,+,43.0,Active,0,LEO,USA,USA,Unknown,Unknown,Unknown,1 59181U 24045D   24271.17271892 -.00001443  00000+0 -27295-4 0  9994,2 59181  43.0034 213.5996 0001624 247.0615 113.0070 15.40685943 32140,15.40685943,0.0001624,LEO
59182,STARLINK-31411,2024,93.46,-1.0,+,43.0,Active,0,LEO,USA,USA,Unknown,Unknown,Unknown,1 59182U 24045E   24270.90668458  .00000833  00000+0  27214-4 0  9994,2 59182  43.0061 215.0382 0001569 263.8306  96.2372 15.40678731 32108,15.40678731,0.0001569,LEO
59183,STARLINK-31347,2024,93.36,-1.0,P,43.0,Active,0,LEO,USA,USA,Unknown,Unknown,Unknown,1 59183U 24045F   24271.23651089  .00136431  00000+0  29749-2 0  9991,2 59183  43.0027 211.4583 0003446 218.6085 141.4526 15.43023067 32194,15.43023067,0.0003446,LEO
59184,STARLINK-31382,2024,93.46,-1.0,+,43.0,Active,0,LEO,USA,USA,Unknown,Unknown,Unknown,1 59184U 24045G   24271.53032386  .00001689  00000+0  47697-4 0  9998,2 59184  43.0050 211.1135 0001600 269.9351  90.1322 15.40692995 32201,15.40692995,0.00016,LEO
59185,STARLINK-31394,2024,93.46,-1.0,P,43.0,Active,0,LEO,USA,USA,Unknown,Unknown,Unknown,1 59185U 24045H   24270.54431047  .00001359  00000+0  39796-4 0  9991,2 59185  43.0060 215.7641 0002124 276.6106  83.4509 15.40698749 32069,15.40698749,0.0002124,LEO
59186,STARLINK-31403,2024,93.46,-1.0,P,43.0,Active,0,LEO,USA,USA,Unknown,Unknown,Unknown,1 59186U 24045J   24271.15346485  .00001942  00000+0  53770-4 0  9997,2 59186  43.0045 197.6691 0003200 255.6208 104.4294 15.40689086 32229,15.40689086,0.00032,LEO
59187,STARLINK-31514,2024,93.46,-1.0,+,43.0,Active,0,LEO,USA,USA,Unknown,Unknown,Unknown,1 59187U 24045K   24271.53259246 -.00004799  00000+0 -10781-3 0  9997,2 59187  43.0047 211.1283 0000121 230.9256 129.1590 15.40672719 32205,15.40672719,1.21e-05,LEO
59188,STARLINK-31478,2024,93.47,-1.0,+,43.0,Active,0,LEO,USA,USA,Unknown,Unknown,Unknown,1 59188U 24045L   24270.89757027 -.00030555  00000+0 -72757-3 0  9996,2 59188  43.0023 214.0957 0001991 276.1553  83.9077 15.40679487 32114,15.40679487,0.0001991,LEO
59189,STARLINK-31498,2024,93.46,-1.0,+,43.0,Active,0,LEO,USA,USA,Unknown,Unknown,Unknown,1 59189U 24045M   24271.11894036 -.00010190  00000+0 -23716-3 0  9999,2 59189  43.0011 213.1827 0001897 286.4505  73.6143 15.40677464 32140,15.40677464,0.0001897,LEO
59190,STARLINK-31563,2024,93.46,-1.0,+,43.0,Active,0,LEO,USA,USA,Unknown,Unknown,Unknown,1 59190U 24045N   24271.22635179 -.00001510  00000+0 -28896-4 0  9995,2 59190  43.0045 213.1350 0000838 268.5833  91.4928 15.40689707 32152,15.40689707,8.38e-05,LEO
59191,STARLINK-31551,2024,93.46,-1.0,+,43.0,Active,0,LEO,USA,USA,Unknown,Unknown,Unknown,1 59191U 24045P   24270.90445344 -.00001511  00000+0 -28926-4 0  9998,2 59191  43.0061 215.0188 0002049 260.7102  99.3523 15.40670376 32105,15.40670376,0.0002049,LEO
59192,STARLINK-31536,2024,93.46,-1.0,+,43.0,Active,0,LEO,USA,USA,Unknown,Unknown,Unknown,1 59192U 24045Q   24271.25001157  .00034889  00000+0  83964-3 0  9992,2 59192  43.0027 212.0916 0001547 268.6978 236.0488 15.40663899 32162,15.40663899,0.0001547,LEO
59193,STARLINK-31548,2024,93.46,-1.0,+,43.0,Active,0,LEO,USA,USA,Unknown,Unknown,Unknown,1 59193U 24045R   24271.52585428 -.00000733  00000+0 -10302-4 0  9991,2 59193  43.0053 211.0770 0001290 278.4641  81.6069 15.40684328 32204,15.40684328,0.000129,LEO
59194,STARLINK-31542,2024,93.46,-1.0,+,43.0,Active,0,LEO,USA,USA,Unknown,Unknown,Unknown,1 59194U 24045S   24271.17049554 -.00003101  00000+0 -67068-4 0  9991,2 59194  43.0048 213.5783 0000785 310.0583  50.0205 15.40676021 32142,15.40676021,7.85e-05,LEO
59195,STARLINK-31554,2024,93.46,-1.0,+,43.0,Active,0,LEO,USA,USA,Unknown,Unknown,Unknown,1 59195U 24045T   24271.23964494 -.00002042  00000+0 -41647-4 0  9996,2 59195  43.0027 212.3654 0001615 269.5812  90.4860 15.40691118 32161,15.40691118,0.0001615,LEO
59196,STARLINK-31558,2024,93.46,-1.0,+,43.0,Active,0,LEO,USA,USA,Unknown,Unknown,Unknown,1 59196U 24045U   24270.58477751 -.00000504  00000+0 -48036-5 0  9990,2 59196  43.0036 216.9179 0000721 235.9035 124.1753 15.40687336 32067,15.40687336,7.21e-05,LEO
59197,STARLINK-31275,2024,93.46,-1.0,+,43.0,Active,0,LEO,USA,USA,Unknown,Unknown,Unknown,1 59197U 24045V   24270.55566085 -.00003758  00000+0 -82789-4 0  9993,2 59197  43.0032 216.6952 0000563   0.5324 359.5533 15.40691347 32057,15.40691347,5.63e-05,LEO
59198,STARLINK-31590,2024,93.46,-1.0,+,43.0,Active,0,LEO,USA,USA,Unknown,Unknown,Unknown,1 59198U 24045W   24271.12119079 -.00004355  00000+0 -97096-4 0  9996,2 59198  43.0029 213.1981 0002567 281.8437  78.2132 15.40680911 32148,15.40680911,0.0002567,LEO
59199,STARLINK-31567,2024,93.46,-1.0,+,43.0,Active,0,LEO,USA,USA,Unknown,Unknown,Unknown,1 59199U 24045X   24271.54377505 -.00002561  00000+0 -54073-4 0  9998,2 59199  43.0017 211.2151 0001571 262.4299  97.6379 15.40689531 32201,15.40689531,0.0001571,LEO
59200,STARLINK-31503,2024,93.47,-1.0,+,43.01,Active,0,LEO,USA,USA,Unknown,Unknown,Unknown,1 59200U 24045Y   24271.53928486  .00001066  00000+0  32772-4 0  9999,2 59200  43.0026 211.1792 0000995 248.7244 111.3507 15.40695229 32208,15.40695229,9.95e-05,LEO
59201,STARLINK-31603,2024,93.3,-1.0,+,53.16,Active,0,LEO,USA,USA,Unknown,Unknown,Unknown,1 59201U 24046A   24271.21612605  .00000064  00000+0  10631-4 0  9996,2 59201  53.1560  91.7715 0001300 261.0536  99.0323 15.43329429 31884,15.43329429,0.00013,LEO
59202,STARLINK-31602,2024,93.53,-1.0,+,53.16,Active,0,LEO,USA,USA,Unknown,Unknown,Unknown,1 59202U 24046B   24270.80912692  .00000140  00000+0  13497-4 0  9998,2 59202  53.1574  93.4915 0001370  87.2608 272.8553 15.39621201 32050,15.39621201,0.000137,LEO
59203,STARLINK-31577,2024,93.53,-1.0,+,53.16,Active,0,LEO,USA,USA,Unknown,Unknown,Unknown,1 59203U 24046C   24271.00001157  .00049991  00000+0  12530-2 0  9999,2 59203  53.1587  92.8554 0000604  62.9918 145.1045 15.39584958  6023,15.39584958,6.04e-05,LEO
59204,STARLINK-31522,2024,93.53,-1.0,+,53.16,Active,0,LEO,USA,USA,Unknown,Unknown,Unknown,1 59204U 24046D   24270.91152582  .00007777  00000+0  20421-3 0  9993,2 59204  53.1599  93.4242 0000910  87.8020 272.3089 15.39618857 32068,15.39618857,9.1e-05,LEO
59205,STARLINK-31586,2024,93.53,-1.0,+,53.16,Active,0,LEO,USA,USA,Unknown,Unknown,Unknown,1 59205U 24046E   24271.51421833 -.00008115  00000+0 -19280-3 0  9999,2 59205  53.1593  90.0713 0001055  68.3142 291.7975 15.39666651 31950,15.39666651,0.0001055,LEO
59206,STARLINK-31247,2024,93.53,-1.0,+,53.16,Active,0,LEO,USA,USA,Unknown,Unknown,Unknown,1 59206U 24046F   24271.50494152 -.00004165  00000+0 -94106-4 0  9995,2 59206  53.1635  90.0176 0001979  90.7599 269.3632 15.39643786 32047,15.39643786,0.0001979,LEO
59207,STARLINK-31591,2024,93.53,-1.0,+,53.16,Active,0,LEO,USA,USA,Unknown,Unknown,Unknown,1 59207U 24046G   24271.50958958 -.00003341  00000+0 -73505-4 0  9990,2 59207  53.1576  90.0429 0001873  85.1064 275.0155 15.39639071 31945,15.39639071,0.0001873,LEO
59208,STARLINK-31576,2024,93.53,-1.0,+,53.16,Active,0,LEO,USA,USA,Unknown,Unknown,Unknown,1 59208U 24046H   24270.94360069  .00000276  00000+0  16889-4 0  9992,2 59208  53.1568  92.9076 0001124  95.7859 264.3274 15.39623451 32077,15.39623451,0.0001124,LEO
59209,STARLINK-31601,2024,93.53,-1.0,+,53.16,Active,0,LEO,USA,USA,Unknown,Unknown,Unknown,1 59209U 24046J   24271.53745187  .00000933  00000+0  33297-4 0  9999,2 59209  53.1561  90.2160 0000893  88.0033 272.1074 15.39627463 31999,15.39627463,8.93e-05,LEO
